ONEWEB-0207             
1 48242U 21031AJ  26146.10403066  .00000137  00000+0  33455-3 0  9999
2 48242  87.8950 294.1019 0002028 103.8422 256.2933 13.14501389245395
ONEWEB-0208             
1 48243U 21031AK  26146.31416080  .00000179  00000+0  44748-3 0  9996
2 48243  87.8944 294.0671 0001509 104.5856 255.5442 13.14501881245433
ONEWEB-0200             
1 48244U 21031AL  26146.12543074 -.00000113  00000+0 -33979-3 0  9994
2 48244  87.8941 294.0910 0001784 101.3188 258.8142 13.14501560245331
ONEWEB-0217             
1 48245U 21031AM  26146.14129304 -.00000094  00000+0 -28678-3 0  9991
2 48245  87.8950 294.0917 0001559 106.4481 253.6821 13.14501420245287
ONEWEB-0211             
1 48767U 21045A   26146.29719733  .00000085  00000+0  18913-3 0  9991
2 48767  87.8994 263.4477 0001226 108.7136 251.4128 13.16195131241561
ONEWEB-0223             
1 48768U 21045B   26146.28875684 -.00000007  00000+0 -51423-4 0  9999
2 48768  87.8998 263.5520 0001479  96.6264 263.5035 13.15547502241522
ONEWEB-0230             
1 48769U 21045C   26146.26022326  .00000066  00000+0  14124-3 0  9994
2 48769  87.8990 263.5734 0002057  98.4315 261.7049 13.15546959241780
ONEWEB-0237             
1 48770U 21045D   26146.24914189  .00000135  00000+0  32337-3 0  9994
2 48770  87.8988 263.5774 0001700  93.8090 266.3235 13.15550164241507
ONEWEB-0235             
1 48771U 21045E   26146.29984048  .00000141  00000+0  34017-3 0  9995
2 48771  87.9000 263.5507 0001522  93.7797 266.3508 13.15546954241508
ONEWEB-0242             
1 48772U 21045F   26146.29350929  .00000026  00000+0  36052-4 0  9995
2 48772  87.9001 263.5486 0001847  94.5533 265.5808 13.15547328241547
ONEWEB-0241             
1 48773U 21045G   26146.28082966 -.00000054  00000+0 -17804-3 0  9994
2 48773  87.8986 263.5719 0001484 102.8905 257.2391 13.15547315241452
ONEWEB-0243             
1 48774U 21045H   26146.31251907  .00000196  00000+0  48545-3 0  9993
2 48774  87.8991 263.5777 0001824  83.8613 276.2725 13.15547422241489
ONEWEB-0222             
1 48775U 21045J   26146.29587890  .00000094  00000+0  21637-3 0  9994
2 48775  87.9000 263.5469 0001630  99.4851 260.6464 13.15546915241520
ONEWEB-0244             
1 48776U 21045K   26146.32202243  .00000203  00000+0  50507-3 0  9995
2 48776  87.9005 263.5350 0001809  97.1488 262.9848 13.15547481242097
ONEWEB-0247             
1 48777U 21045L   26146.24280788  .00000130  00000+0  31254-3 0  9994
2 48777  87.8988 263.5861 0001538  75.0459 285.0842 13.15547787241522
ONEWEB-0245             
1 48778U 21045M   26146.31411007  .00000177  00000+0  43526-3 0  9999
2 48778  87.8999 263.5491 0001703 104.7122 255.4197 13.15547836241502
