[{"OBJECT_NAME":"ONEWEB-0207","OBJECT_ID":"2021-031AJ","EPOCH":"2026-05-26T02:29:48.249024","MEAN_MOTION":13.14501389,"ECCENTRICITY":0.0002028,"INCLINATION":87.895,"RA_OF_ASC_NODE":294.1019,"ARG_OF_PERICENTER":103.8422,"MEAN_ANOMALY":256.2933,"EPHEMERIS_TYPE":0,"CLASSIFICATION_TYPE":"U","NORAD_CAT_ID":48242,"ELEMENT_SET_NO":999,"REV_AT_EPOCH":24539,"BSTAR":0.00033455000000000003,"MEAN_MOTION_DOT":1.37e-06,"MEAN_MOTION_DDOT":0.0},{"OBJECT_NAME":"ONEWEB-0208","OBJECT_ID":"2021-031AK","EPOCH":"2026-05-26T07:32:23.493120","MEAN_MOTION":13.14501881,"ECCENTRICITY":0.0001509,"INCLINATION":87.8944,"RA_OF_ASC_NODE":294.0671,"ARG_OF_PERICENTER":104.5856,"MEAN_ANOMALY":255.5442,"EPHEMERIS_TYPE":0,"CLASSIFICATION_TYPE":"U","NORAD_CAT_ID":48243,"ELEMENT_SET_NO":999,"REV_AT_EPOCH":24543,"BSTAR":0.00044748,"MEAN_MOTION_DOT":1.79e-06,"MEAN_MOTION_DDOT":0.0},{"OBJECT_NAME":"ONEWEB-0200","OBJECT_ID":"2021-031AL","EPOCH":"2026-05-26T03:00:37.215936","MEAN_MOTION":13.1450156,"ECCENTRICITY":0.0001784,"INCLINATION":87.8941,"RA_OF_ASC_NODE":294.091,"ARG_OF_PERICENTER":101.3188,"MEAN_ANOMALY":258.8142,"EPHEMERIS_TYPE":0,"CLASSIFICATION_TYPE":"U","NORAD_CAT_ID":48244,"ELEMENT_SET_NO":999,"REV_AT_EPOCH":24533,"BSTAR":-0.00033978999999999997,"MEAN_MOTION_DOT":-1.13e-06,"MEAN_MOTION_DDOT":0.0},{"OBJECT_NAME":"ONEWEB-0217","OBJECT_ID":"2021-031AM","EPOCH":"2026-05-26T03:23:27.718656","MEAN_MOTION":13.1450142,"ECCENTRICITY":0.0001559,"INCLINATION":87.895,"RA_OF_ASC_NODE":294.0917,"ARG_OF_PERICENTER":106.4481,"MEAN_ANOMALY":253.6821,"EPHEMERIS_TYPE":0,"CLASSIFICATION_TYPE":"U","NORAD_CAT_ID":48245,"ELEMENT_SET_NO":999,"REV_AT_EPOCH":24528,"BSTAR":-0.00028678,"MEAN_MOTION_DOT":-9.4e-07,"MEAN_MOTION_DDOT":0.0},{"OBJECT_NAME":"ONEWEB-0211","OBJECT_ID":"2021-045A","EPOCH":"2026-05-26T07:07:57.849312","MEAN_MOTION":13.16195131,"ECCENTRICITY":0.0001226,"INCLINATION":87.8994,"RA_OF_ASC_NODE":263.4477,"ARG_OF_PERICENTER":108.7136,"MEAN_ANOMALY":251.4128,"EPHEMERIS_TYPE":0,"CLASSIFICATION_TYPE":"U","NORAD_CAT_ID":48767,"ELEMENT_SET_NO":999,"REV_AT_EPOCH":24156,"BSTAR":0.00018913,"MEAN_MOTION_DOT":8.5e-07,"MEAN_MOTION_DDOT":0.0},{"OBJECT_NAME":"ONEWEB-0223","OBJECT_ID":"2021-045B","EPOCH":"2026-05-26T06:55:48.590976","MEAN_MOTION":13.15547502,"ECCENTRICITY":0.0001479,"INCLINATION":87.8998,"RA_OF_ASC_NODE":263.552,"ARG_OF_PERICENTER":96.6264,"MEAN_ANOMALY":263.5035,"EPHEMERIS_TYPE":0,"CLASSIFICATION_TYPE":"U","NORAD_CAT_ID":48768,"ELEMENT_SET_NO":999,"REV_AT_EPOCH":24152,"BSTAR":-5.1423e-05,"MEAN_MOTION_DOT":-7e-08,"MEAN_MOTION_DDOT":0.0},{"OBJECT_NAME":"ONEWEB-0230","OBJECT_ID":"2021-045C","EPOCH":"2026-05-26T06:14:43.289664","MEAN_MOTION":13.15546959,"ECCENTRICITY":0.0002057,"INCLINATION":87.899,"RA_OF_ASC_NODE":263.5734,"ARG_OF_PERICENTER":98.4315,"MEAN_ANOMALY":261.7049,"EPHEMERIS_TYPE":0,"CLASSIFICATION_TYPE":"U","NORAD_CAT_ID":48769,"ELEMENT_SET_NO":999,"REV_AT_EPOCH":24178,"BSTAR":0.00014124,"MEAN_MOTION_DOT":6.6e-07,"MEAN_MOTION_DDOT":0.0},{"OBJECT_NAME":"ONEWEB-0237","OBJECT_ID":"2021-045D","EPOCH":"2026-05-26T05:58:45.859296","MEAN_MOTION":13.15550164,"ECCENTRICITY":0.00017,"INCLINATION":87.8988,"RA_OF_ASC_NODE":263.5774,"ARG_OF_PERICENTER":93.809,"MEAN_ANOMALY":266.3235,"EPHEMERIS_TYPE":0,"CLASSIFICATION_TYPE":"U","NORAD_CAT_ID":48770,"ELEMENT_SET_NO":999,"REV_AT_EPOCH":24150,"BSTAR":0.00032337,"MEAN_MOTION_DOT":1.35e-06,"MEAN_MOTION_DDOT":0.0},{"OBJECT_NAME":"ONEWEB-0235","OBJECT_ID":"2021-045E","EPOCH":"2026-05-26T07:11:46.217472","MEAN_MOTION":13.15546954,"ECCENTRICITY":0.0001522,"INCLINATION":87.9,"RA_OF_ASC_NODE":263.5507,"ARG_OF_PERICENTER":93.7797,"MEAN_ANOMALY":266.3508,"EPHEMERIS_TYPE":0,"CLASSIFICATION_TYPE":"U","NORAD_CAT_ID":48771,"ELEMENT_SET_NO":999,"REV_AT_EPOCH":24150,"BSTAR":0.00034017,"MEAN_MOTION_DOT":1.41e-06,"MEAN_MOTION_DDOT":0.0},{"OBJECT_NAME":"ONEWEB-0242","OBJECT_ID":"2021-045F","EPOCH":"2026-05-26T07:02:39.202656","MEAN_MOTION":13.15547328,"ECCENTRICITY":0.0001847,"INCLINATION":87.9001,"RA_OF_ASC_NODE":263.5486,"ARG_OF_PERICENTER":94.5533,"MEAN_ANOMALY":265.5808,"EPHEMERIS_TYPE":0,"CLASSIFICATION_TYPE":"U","NORAD_CAT_ID":48772,"ELEMENT_SET_NO":999,"REV_AT_EPOCH":24154,"BSTAR":3.6052e-05,"MEAN_MOTION_DOT":2.6e-07,"MEAN_MOTION_DDOT":0.0},{"OBJECT_NAME":"ONEWEB-0241","OBJECT_ID":"2021-045G","EPOCH":"2026-05-26T06:44:23.682624","MEAN_MOTION":13.15547315,"ECCENTRICITY":0.0001484,"INCLINATION":87.8986,"RA_OF_ASC_NODE":263.5719,"ARG_OF_PERICENTER":102.8905,"MEAN_ANOMALY":257.2391,"EPHEMERIS_TYPE":0,"CLASSIFICATION_TYPE":"U","NORAD_CAT_ID":48773,"ELEMENT_SET_NO":999,"REV_AT_EPOCH":24145,"BSTAR":-0.00017804,"MEAN_MOTION_DOT":-5.4e-07,"MEAN_MOTION_DDOT":0.0},{"OBJECT_NAME":"ONEWEB-0243","OBJECT_ID":"2021-045H","EPOCH":"2026-05-26T07:30:01.647648","MEAN_MOTION":13.15547422,"ECCENTRICITY":0.0001824,"INCLINATION":87.8991,"RA_OF_ASC_NODE":263.5777,"ARG_OF_PERICENTER":83.8613,"MEAN_ANOMALY":276.2725,"EPHEMERIS_TYPE":0,"CLASSIFICATION_TYPE":"U","NORAD_CAT_ID":48774,"ELEMENT_SET_NO":999,"REV_AT_EPOCH":24148,"BSTAR":0.00048545,"MEAN_MOTION_DOT":1.96e-06,"MEAN_MOTION_DDOT":0.0},{"OBJECT_NAME":"ONEWEB-0222","OBJECT_ID":"2021-045J","EPOCH":"2026-05-26T07:06:03.936960","MEAN_MOTION":13.15546915,"ECCENTRICITY":0.000163,"INCLINATION":87.9,"RA_OF_ASC_NODE":263.5469,"ARG_OF_PERICENTER":99.4851,"MEAN_ANOMALY":260.6464,"EPHEMERIS_TYPE":0,"CLASSIFICATION_TYPE":"U","NORAD_CAT_ID":48775,"ELEMENT_SET_NO":999,"REV_AT_EPOCH":24152,"BSTAR":0.00021637000000000002,"MEAN_MOTION_DOT":9.4e-07,"MEAN_MOTION_DDOT":0.0},{"OBJECT_NAME":"ONEWEB-0244","OBJECT_ID":"2021-045K","EPOCH":"2026-05-26T07:43:42.737952","MEAN_MOTION":13.15547481,"ECCENTRICITY":0.0001809,"INCLINATION":87.9005,"RA_OF_ASC_NODE":263.535,"ARG_OF_PERICENTER":97.1488,"MEAN_ANOMALY":262.9848,"EPHEMERIS_TYPE":0,"CLASSIFICATION_TYPE":"U","NORAD_CAT_ID":48776,"ELEMENT_SET_NO":999,"REV_AT_EPOCH":24209,"BSTAR":0.00050507,"MEAN_MOTION_DOT":2.03e-06,"MEAN_MOTION_DDOT":0.0},{"OBJECT_NAME":"ONEWEB-0247","OBJECT_ID":"2021-045L","EPOCH":"2026-05-26T05:49:38.600832","MEAN_MOTION":13.15547787,"ECCENTRICITY":0.0001538,"INCLINATION":87.8988,"RA_OF_ASC_NODE":263.5861,"ARG_OF_PERICENTER":75.0459,"MEAN_ANOMALY":285.0842,"EPHEMERIS_TYPE":0,"CLASSIFICATION_TYPE":"U","NORAD_CAT_ID":48777,"ELEMENT_SET_NO":999,"REV_AT_EPOCH":24152,"BSTAR":0.00031254,"MEAN_MOTION_DOT":1.3e-06,"MEAN_MOTION_DDOT":0.0},{"OBJECT_NAME":"ONEWEB-0245","OBJECT_ID":"2021-045M","EPOCH":"2026-05-26T07:32:19.110048","MEAN_MOTION":13.15547836,"ECCENTRICITY":0.0001703,"INCLINATION":87.8999,"RA_OF_ASC_NODE":263.5491,"ARG_OF_PERICENTER":104.7122,"MEAN_ANOMALY":255.4197,"EPHEMERIS_TYPE":0,"CLASSIFICATION_TYPE":"U","NORAD_CAT_ID":48778,"ELEMENT_SET_NO":999,"REV_AT_EPOCH":24150,"BSTAR":0.00043526,"MEAN_MOTION_DOT":1.77e-06,"MEAN_MOTION_DDOT":0.0}]